[Satellite]
VERSION=1.1
NAME=SL-4 R/B
NICKNAME=SL-4 R/B
TLE1=1 39679U 14021B   20157.70362588 -.00000014  00000-0  17508-4 0  9997
TLE2=2 39679  51.6158 161.9483 0171468 265.0628  93.0748 15.06416655337250
STATUS=0
